[{"OBJECT_NAME":"STARLINK-3325","OBJECT_ID":"2022-001AS","EPOCH":"2025-09-11T07:40:50.449440","MEAN_MOTION":15.08825122,"ECCENTRICITY":0.00010418,"INCLINATION":53.2151,"RA_OF_ASC_NODE":264.3467,"ARG_OF_PERICENTER":83.083,"MEAN_ANOMALY":277.028,"EPHEMERIS_TYPE":0,"CLASSIFICATION_TYPE":"U","NORAD_CAT_ID":50843,"ELEMENT_SET_NO":999,"REV_AT_EPOCH":20318,"BSTAR":0.00010760616,"MEAN_MOTION_DOT":1.425e-5,"MEAN_MOTION_DDOT":0},{"OBJECT_NAME":"STARLINK-3326","OBJECT_ID":"2022-001AT","EPOCH":"2025-09-12T06:43:56.022528","MEAN_MOTION":15.08840697,"ECCENTRICITY":0.00010685,"INCLINATION":53.2161,"RA_OF_ASC_NODE":260.0307,"ARG_OF_PERICENTER":88.8616,"MEAN_ANOMALY":271.2499,"EPHEMERIS_TYPE":0,"CLASSIFICATION_TYPE":"U","NORAD_CAT_ID":50844,"ELEMENT_SET_NO":999,"REV_AT_EPOCH":20333,"BSTAR":8.5076905e-5,"MEAN_MOTION_DOT":1.066e-5,"MEAN_MOTION_DDOT":0},{"OBJECT_NAME":"STARLINK-3230","OBJECT_ID":"2022-001AU","EPOCH":"2025-09-12T09:22:54.249024","MEAN_MOTION":15.08817009,"ECCENTRICITY":0.00011328,"INCLINATION":53.2168,"RA_OF_ASC_NODE":259.5374,"ARG_OF_PERICENTER":109.5029,"MEAN_ANOMALY":250.6085,"EPHEMERIS_TYPE":0,"CLASSIFICATION_TYPE":"U","NORAD_CAT_ID":50845,"ELEMENT_SET_NO":999,"REV_AT_EPOCH":20335,"BSTAR":2.7953602e-5,"MEAN_MOTION_DOT":1.57e-6,"MEAN_MOTION_DDOT":0},{"OBJECT_NAME":"STARLINK-3308","OBJECT_ID":"2022-001AV","EPOCH":"2025-09-12T06:54:31.841856","MEAN_MOTION":15.08854289,"ECCENTRICITY":0.00012696,"INCLINATION":53.2181,"RA_OF_ASC_NODE":260.1156,"ARG_OF_PERICENTER":89.2164,"MEAN_ANOMALY":270.8974,"EPHEMERIS_TYPE":0,"CLASSIFICATION_TYPE":"U","NORAD_CAT_ID":50846,"ELEMENT_SET_NO":999,"REV_AT_EPOCH":20333,"BSTAR":0.00024117454,"MEAN_MOTION_DOT":3.554e-5,"MEAN_MOTION_DDOT":0},{"OBJECT_NAME":"STARLINK-3315","OBJECT_ID":"2022-001AX","EPOCH":"2025-09-12T06:33:18.489888","MEAN_MOTION":15.08841531,"ECCENTRICITY":0.00013297,"INCLINATION":53.2164,"RA_OF_ASC_NODE":260.0638,"ARG_OF_PERICENTER":84.8353,"MEAN_ANOMALY":275.2791,"EPHEMERIS_TYPE":0,"CLASSIFICATION_TYPE":"U","NORAD_CAT_ID":50848,"ELEMENT_SET_NO":999,"REV_AT_EPOCH":20333,"BSTAR":0.0001675302,"MEAN_MOTION_DOT":2.379e-5,"MEAN_MOTION_DDOT":0},{"OBJECT_NAME":"STARLINK-3311","OBJECT_ID":"2022-001AY","EPOCH":"2025-09-12T06:49:12.465984","MEAN_MOTION":15.08843761,"ECCENTRICITY":0.00013281,"INCLINATION":53.2158,"RA_OF_ASC_NODE":260.0147,"ARG_OF_PERICENTER":89.0342,"MEAN_ANOMALY":271.0802,"EPHEMERIS_TYPE":0,"CLASSIFICATION_TYPE":"U","NORAD_CAT_ID":50849,"ELEMENT_SET_NO":999,"REV_AT_EPOCH":20333,"BSTAR":4.5806328e-5,"MEAN_MOTION_DOT":4.41e-6,"MEAN_MOTION_DDOT":0},{"OBJECT_NAME":"STARLINK-3312","OBJECT_ID":"2022-001AZ","EPOCH":"2025-09-11T15:00:39.301632","MEAN_MOTION":15.08839796,"ECCENTRICITY":0.00014732,"INCLINATION":53.2185,"RA_OF_ASC_NODE":222.9738,"ARG_OF_PERICENTER":87.5133,"MEAN_ANOMALY":272.6028,"EPHEMERIS_TYPE":0,"CLASSIFICATION_TYPE":"U","NORAD_CAT_ID":50850,"ELEMENT_SET_NO":999,"REV_AT_EPOCH":20433,"BSTAR":2.7933247e-5,"MEAN_MOTION_DOT":1.57e-6,"MEAN_MOTION_DDOT":0},{"OBJECT_NAME":"STARLINK-3314","OBJECT_ID":"2022-001BA","EPOCH":"2025-09-11T11:12:45.929664","MEAN_MOTION":15.08835905,"ECCENTRICITY":0.00012135,"INCLINATION":53.2165,"RA_OF_ASC_NODE":263.6073,"ARG_OF_PERICENTER":85.6213,"MEAN_ANOMALY":274.4918,"EPHEMERIS_TYPE":0,"CLASSIFICATION_TYPE":"U","NORAD_CAT_ID":50851,"ELEMENT_SET_NO":999,"REV_AT_EPOCH":20321,"BSTAR":-4.4296969e-5,"MEAN_MOTION_DOT":-9.93e-6,"MEAN_MOTION_DDOT":0},{"OBJECT_NAME":"STARLINK-3366","OBJECT_ID":"2022-005A","EPOCH":"2025-09-12T14:52:46.545888","MEAN_MOTION":15.08836677,"ECCENTRICITY":0.00020367,"INCLINATION":53.2216,"RA_OF_ASC_NODE":8.5104,"ARG_OF_PERICENTER":115.5342,"MEAN_ANOMALY":244.5861,"EPHEMERIS_TYPE":0,"CLASSIFICATION_TYPE":"U","NORAD_CAT_ID":51104,"ELEMENT_SET_NO":999,"REV_AT_EPOCH":20199,"BSTAR":7.89744e-7,"MEAN_MOTION_DOT":-2.76e-6,"MEAN_MOTION_DDOT":0},{"OBJECT_NAME":"STARLINK-3350","OBJECT_ID":"2022-005B","EPOCH":"2025-09-12T14:15:39.882240","MEAN_MOTION":15.08839207,"ECCENTRICITY":0.00011383,"INCLINATION":53.2186,"RA_OF_ASC_NODE":8.6244,"ARG_OF_PERICENTER":80.0461,"MEAN_ANOMALY":280.066,"EPHEMERIS_TYPE":0,"CLASSIFICATION_TYPE":"U","NORAD_CAT_ID":51105,"ELEMENT_SET_NO":999,"REV_AT_EPOCH":20199,"BSTAR":5.8217138e-5,"MEAN_MOTION_DOT":6.39e-6,"MEAN_MOTION_DDOT":0},{"OBJECT_NAME":"STARLINK-3176","OBJECT_ID":"2022-005C","EPOCH":"2025-09-12T13:43:53.646816","MEAN_MOTION":15.08833967,"ECCENTRICITY":0.00012471,"INCLINATION":53.2201,"RA_OF_ASC_NODE":8.7216,"ARG_OF_PERICENTER":90.3559,"MEAN_ANOMALY":269.7576,"EPHEMERIS_TYPE":0,"CLASSIFICATION_TYPE":"U","NORAD_CAT_ID":51106,"ELEMENT_SET_NO":999,"REV_AT_EPOCH":20198,"BSTAR":4.0949511e-5,"MEAN_MOTION_DOT":3.64e-6,"MEAN_MOTION_DDOT":0},{"OBJECT_NAME":"STARLINK-3362","OBJECT_ID":"2022-005E","EPOCH":"2025-09-12T14:10:21.822240","MEAN_MOTION":15.08844992,"ECCENTRICITY":0.00011457,"INCLINATION":53.2191,"RA_OF_ASC_NODE":8.6426,"ARG_OF_PERICENTER":77.0605,"MEAN_ANOMALY":283.0515,"EPHEMERIS_TYPE":0,"CLASSIFICATION_TYPE":"U","NORAD_CAT_ID":51108,"ELEMENT_SET_NO":999,"REV_AT_EPOCH":20199,"BSTAR":6.5446377e-5,"MEAN_MOTION_DOT":7.54e-6,"MEAN_MOTION_DDOT":0},{"OBJECT_NAME":"STARLINK-3358","OBJECT_ID":"2022-005F","EPOCH":"2025-09-11T14:46:04.620864","MEAN_MOTION":15.08833509,"ECCENTRICITY":0.00012067,"INCLINATION":53.2192,"RA_OF_ASC_NODE":12.973,"ARG_OF_PERICENTER":90.5397,"MEAN_ANOMALY":269.5733,"EPHEMERIS_TYPE":0,"CLASSIFICATION_TYPE":"U","NORAD_CAT_ID":51109,"ELEMENT_SET_NO":999,"REV_AT_EPOCH":20161,"BSTAR":1.4746147e-5,"MEAN_MOTION_DOT":-5.3e-7,"MEAN_MOTION_DDOT":0},{"OBJECT_NAME":"STARLINK-3344","OBJECT_ID":"2022-005G","EPOCH":"2025-09-12T13:54:27.856512","MEAN_MOTION":15.08847657,"ECCENTRICITY":0.00011085,"INCLINATION":53.2193,"RA_OF_ASC_NODE":8.6688,"ARG_OF_PERICENTER":80.5738,"MEAN_ANOMALY":279.538,"EPHEMERIS_TYPE":0,"CLASSIFICATION_TYPE":"U","NORAD_CAT_ID":51110,"ELEMENT_SET_NO":999,"REV_AT_EPOCH":20199,"BSTAR":-2.58668e-7,"MEAN_MOTION_DOT":-2.92e-6,"MEAN_MOTION_DDOT":0},{"OBJECT_NAME":"STARLINK-3173","OBJECT_ID":"2022-005H","EPOCH":"2025-09-11T15:07:17.034528","MEAN_MOTION":15.08834444,"ECCENTRICITY":0.00012041,"INCLINATION":53.2197,"RA_OF_ASC_NODE":12.9495,"ARG_OF_PERICENTER":91.1504,"MEAN_ANOMALY":268.9626,"EPHEMERIS_TYPE":0,"CLASSIFICATION_TYPE":"U","NORAD_CAT_ID":51111,"ELEMENT_SET_NO":999,"REV_AT_EPOCH":20184,"BSTAR":-2.9990981e-5,"MEAN_MOTION_DOT":-7.65e-6,"MEAN_MOTION_DDOT":0},{"OBJECT_NAME":"STARLINK-3374","OBJECT_ID":"2022-005J","EPOCH":"2025-09-12T13:50:32.705088","MEAN_MOTION":15.08838193,"ECCENTRICITY":0.00011981,"INCLINATION":53.219,"RA_OF_ASC_NODE":8.674,"ARG_OF_PERICENTER":86.3483,"MEAN_ANOMALY":273.7646,"EPHEMERIS_TYPE":0,"CLASSIFICATION_TYPE":"U","NORAD_CAT_ID":51112,"ELEMENT_SET_NO":999,"REV_AT_EPOCH":20199,"BSTAR":7.0117168e-5,"MEAN_MOTION_DOT":8.28e-6,"MEAN_MOTION_DDOT":0}]
