STARLINK-3325           
1 50843U 22001AS  25254.32002835  .00001425  00000+0  10761-3 0  9995
2 50843  53.2151 264.3467 0001041  83.0830 277.0280 15.08825122203183
STARLINK-3326           
1 50844U 22001AT  25255.28050952  .00001066  00000+0  85077-4 0  9999
2 50844  53.2161 260.0307 0001068  88.8616 271.2499 15.08840697203334
STARLINK-3230           
1 50845U 22001AU  25255.39090566  .00000157  00000+0  27954-4 0  9997
2 50845  53.2168 259.5374 0001132 109.5029 250.6085 15.08817009203355
STARLINK-3308           
1 50846U 22001AV  25255.28786854  .00003554  00000+0  24117-3 0  9999
2 50846  53.2181 260.1156 0001269  89.2164 270.8974 15.08854289203332
STARLINK-3315           
1 50848U 22001AX  25255.27313067  .00002379  00000+0  16753-3 0  9993
2 50848  53.2164 260.0638 0001329  84.8353 275.2791 15.08841531203339
STARLINK-3311           
1 50849U 22001AY  25255.28417206  .00000441  00000+0  45806-4 0  9995
2 50849  53.2158 260.0147 0001328  89.0342 271.0802 15.08843761203336
STARLINK-3312           
1 50850U 22001AZ  25254.62545488  .00000157  00000+0  27933-4 0  9993
2 50850  53.2185 222.9738 0001473  87.5133 272.6028 15.08839796204334
STARLINK-3314           
1 50851U 22001BA  25254.46719826 -.00000993  00000+0 -44297-4 0  9997
2 50851  53.2165 263.6073 0001213  85.6213 274.4918 15.08835905203219
STARLINK-3366           
1 51104U 22005A   25255.61998317 -.00000276  00000+0  78974-6 0  9999
2 51104  53.2216   8.5104 0002036 115.5342 244.5861 15.08836677201994
STARLINK-3350           
1 51105U 22005B   25255.59421160  .00000639  00000+0  58217-4 0  9992
2 51105  53.2186   8.6244 0001138  80.0461 280.0660 15.08839207201991
STARLINK-3176           
1 51106U 22005C   25255.57214869  .00000364  00000+0  40950-4 0  9997
2 51106  53.2201   8.7216 0001247  90.3559 269.7576 15.08833967201989
STARLINK-3362           
1 51108U 22005E   25255.59053035  .00000754  00000+0  65446-4 0  9997
2 51108  53.2191   8.6426 0001145  77.0605 283.0515 15.08844992201995
STARLINK-3358           
1 51109U 22005F   25254.61533126 -.00000053  00000+0  14746-4 0  9994
2 51109  53.2192  12.9730 0001206  90.5397 269.5733 15.08833509201611
STARLINK-3344           
1 51110U 22005G   25255.57948908 -.00000292  00000+0 -25867-6 0  9994
2 51110  53.2193   8.6688 0001108  80.5738 279.5380 15.08847657201996
STARLINK-3173           
1 51111U 22005H   25254.63005827 -.00000765  00000+0 -29991-4 0  9990
2 51111  53.2197  12.9495 0001204  91.1504 268.9626 15.08834444201840
STARLINK-3374           
1 51112U 22005J   25255.57676742  .00000828  00000+0  70117-4 0  9999
2 51112  53.2190   8.6740 0001198  86.3483 273.7646 15.08838193201990
